SL-3 R/B                
1 13403U 82079B   26050.22487035  .00005449  00000+0  21883-3 0  9997
2 13403  81.1450 214.8742 0024331 227.6704 132.2469 15.24500203374880
SL-14 R/B               
1 13553U 82092B   26050.26162228  .00000500  00000+0  53354-4 0  9998
2 13553  82.5710 158.6309 0020417   6.8115  16.0354 14.86645677326193
SL-3 R/B                
1 13819U 83010B   26049.99083945  .00014252  00000+0  29309-3 0  9991
2 13819  81.1037  25.1578 0018591 109.7918 250.5333 15.45642254355058
SL-3 R/B                
1 14208U 83075B   26050.21154556  .00010569  00000+0  28382-3 0  9996
2 14208  97.6131  54.0977 0019927 298.7988  61.1255 15.37926632327315
COSMOS 1536             
1 14699U 84013A   26050.20034976  .00004777  00000+0  19802-3 0  9996
2 14699  82.5462 126.2245 0013889 353.5622   6.5434 15.23560470269805
SL-14 R/B               
1 14820U 84027B   26050.10789859  .00000394  00000+0  42227-4 0  9992
2 14820  82.5385 262.4449 0018927  38.8523 321.4049 14.85956619244877
SL-8 R/B                
1 15483U 85006B   26050.17049155  .00000168  00000+0  64346-4 0  9996
2 15483  74.0454 295.2269 0019167 216.9351 311.6076 14.37773526151368
SL-12 R/B(2)            
1 15772U 85042D   26050.18546651  .00000132  00000+0  80735-4 0  9992
2 15772  71.1080 126.8242 0034269 158.1174 223.3663 14.21977122111764
SL-14 R/B               
1 15945U 85069B   26050.03098252  .00000487  00000+0  52396-4 0  9991
2 15945  82.5250  42.4801 0017210 253.0478 106.8853 14.86409664170060
SL-16 R/B               
1 16182U 85097B   26049.78878190 -.00000010  00000+0  18853-4 0  9996
2 16182  71.0027 180.3424 0009712 281.3309 184.8908 14.16594339 84559
SL-14 R/B               
1 16496U 86006B   26050.08023992  .00000556  00000+0  56496-4 0  9991
2 16496  82.5248 277.2550 0076006 335.5041  24.2571 14.86789341146446
COSMOS 1743             
1 16719U 86034A   26050.14246167  .00030207  00000+0  41480-3 0  9990
2 16719  82.5303  93.2760 0004080  21.5422 338.6004 15.57155085177362
