CCSDS_OMM_VERS = 2.0
CREATION_DATE  = 
ORIGINATOR     = 

OBJECT_NAME    = SL-3 R/B
OBJECT_ID      = 1982-079B
CENTER_NAME    = EARTH
REF_FRAME      = TEME
TIME_SYSTEM    = UTC
MEAN_ELEMENT_THEORY = SGP/SGP4

EPOCH          = 2026-02-19T05:23:48.798240
MEAN_MOTION    = 15.24500203
ECCENTRICITY   = .00243311
INCLINATION    = 81.1450
RA_OF_ASC_NODE = 214.8742
ARG_OF_PERICENTER = 227.6704
MEAN_ANOMALY   = 132.2469

EPHEMERIS_TYPE = 0
CLASSIFICATION_TYPE = U
NORAD_CAT_ID   = 13403
ELEMENT_SET_NO = 999
REV_AT_EPOCH   = 37488
BSTAR          = .21882649E-3
MEAN_MOTION_DOT = .5449E-4
MEAN_MOTION_DDOT = 0

CCSDS_OMM_VERS = 2.0
CREATION_DATE  = 
ORIGINATOR     = 

OBJECT_NAME    = SL-14 R/B
OBJECT_ID      = 1982-092B
CENTER_NAME    = EARTH
REF_FRAME      = TEME
TIME_SYSTEM    = UTC
MEAN_ELEMENT_THEORY = SGP/SGP4

EPOCH          = 2026-02-19T06:16:44.164992
MEAN_MOTION    = 14.86645677
ECCENTRICITY   = .00204175
INCLINATION    = 82.5710
RA_OF_ASC_NODE = 158.6309
ARG_OF_PERICENTER = 6.8115
MEAN_ANOMALY   = 16.0354

EPHEMERIS_TYPE = 0
CLASSIFICATION_TYPE = U
NORAD_CAT_ID   = 13553
ELEMENT_SET_NO = 999
REV_AT_EPOCH   = 32619
BSTAR          = .53353566E-4
MEAN_MOTION_DOT = .5E-5
MEAN_MOTION_DDOT = 0

CCSDS_OMM_VERS = 2.0
CREATION_DATE  = 
ORIGINATOR     = 

OBJECT_NAME    = SL-3 R/B
OBJECT_ID      = 1983-010B
CENTER_NAME    = EARTH
REF_FRAME      = TEME
TIME_SYSTEM    = UTC
MEAN_ELEMENT_THEORY = SGP/SGP4

EPOCH          = 2026-02-18T23:46:48.528480
MEAN_MOTION    = 15.45642254
ECCENTRICITY   = .0018591
INCLINATION    = 81.1037
RA_OF_ASC_NODE = 25.1578
ARG_OF_PERICENTER = 109.7918
MEAN_ANOMALY   = 250.5333

EPHEMERIS_TYPE = 0
CLASSIFICATION_TYPE = U
NORAD_CAT_ID   = 13819
ELEMENT_SET_NO = 999
REV_AT_EPOCH   = 35505
BSTAR          = .29309171E-3
MEAN_MOTION_DOT = .14252E-3
MEAN_MOTION_DDOT = 0

CCSDS_OMM_VERS = 2.0
CREATION_DATE  = 
ORIGINATOR     = 

OBJECT_NAME    = SL-3 R/B
OBJECT_ID      = 1983-075B
CENTER_NAME    = EARTH
REF_FRAME      = TEME
TIME_SYSTEM    = UTC
MEAN_ELEMENT_THEORY = SGP/SGP4

EPOCH          = 2026-02-19T05:04:37.536384
MEAN_MOTION    = 15.37926632
ECCENTRICITY   = .00199278
INCLINATION    = 97.6131
RA_OF_ASC_NODE = 54.0977
ARG_OF_PERICENTER = 298.7988
MEAN_ANOMALY   = 61.1255

EPHEMERIS_TYPE = 0
CLASSIFICATION_TYPE = U
NORAD_CAT_ID   = 14208
ELEMENT_SET_NO = 999
REV_AT_EPOCH   = 32731
BSTAR          = .2838196E-3
MEAN_MOTION_DOT = .10569E-3
MEAN_MOTION_DDOT = 0

CCSDS_OMM_VERS = 2.0
CREATION_DATE  = 
ORIGINATOR     = 

OBJECT_NAME    = COSMOS 1536
OBJECT_ID      = 1984-013A
CENTER_NAME    = EARTH
REF_FRAME      = TEME
TIME_SYSTEM    = UTC
MEAN_ELEMENT_THEORY = SGP/SGP4

EPOCH          = 2026-02-19T04:48:30.219264
MEAN_MOTION    = 15.23560470
ECCENTRICITY   = .00138898
INCLINATION    = 82.5462
RA_OF_ASC_NODE = 126.2245
ARG_OF_PERICENTER = 353.5622
MEAN_ANOMALY   = 6.5434

EPHEMERIS_TYPE = 0
CLASSIFICATION_TYPE = U
NORAD_CAT_ID   = 14699
ELEMENT_SET_NO = 999
REV_AT_EPOCH   = 26980
BSTAR          = .1980178E-3
MEAN_MOTION_DOT = .4777E-4
MEAN_MOTION_DDOT = 0

CCSDS_OMM_VERS = 2.0
CREATION_DATE  = 
ORIGINATOR     = 

OBJECT_NAME    = SL-14 R/B
OBJECT_ID      = 1984-027B
CENTER_NAME    = EARTH
REF_FRAME      = TEME
TIME_SYSTEM    = UTC
MEAN_ELEMENT_THEORY = SGP/SGP4

EPOCH          = 2026-02-19T02:35:22.438176
MEAN_MOTION    = 14.85956619
ECCENTRICITY   = .00189272
INCLINATION    = 82.5385
RA_OF_ASC_NODE = 262.4449
ARG_OF_PERICENTER = 38.8523
MEAN_ANOMALY   = 321.4049

EPHEMERIS_TYPE = 0
CLASSIFICATION_TYPE = U
NORAD_CAT_ID   = 14820
ELEMENT_SET_NO = 999
REV_AT_EPOCH   = 24487
BSTAR          = .42226537E-4
MEAN_MOTION_DOT = .394E-5
MEAN_MOTION_DDOT = 0

CCSDS_OMM_VERS = 2.0
CREATION_DATE  = 
ORIGINATOR     = 

OBJECT_NAME    = SL-8 R/B
OBJECT_ID      = 1985-006B
CENTER_NAME    = EARTH
REF_FRAME      = TEME
TIME_SYSTEM    = UTC
MEAN_ELEMENT_THEORY = SGP/SGP4

EPOCH          = 2026-02-19T04:05:30.469920
MEAN_MOTION    = 14.37773526
ECCENTRICITY   = .00191672
INCLINATION    = 74.0454
RA_OF_ASC_NODE = 295.2269
ARG_OF_PERICENTER = 216.9351
MEAN_ANOMALY   = 311.6076

EPHEMERIS_TYPE = 0
CLASSIFICATION_TYPE = U
NORAD_CAT_ID   = 15483
ELEMENT_SET_NO = 999
REV_AT_EPOCH   = 15136
BSTAR          = .64345687E-4
MEAN_MOTION_DOT = .168E-5
MEAN_MOTION_DDOT = 0

CCSDS_OMM_VERS = 2.0
CREATION_DATE  = 
ORIGINATOR     = 

OBJECT_NAME    = SL-12 R/B(2)
OBJECT_ID      = 1985-042D
CENTER_NAME    = EARTH
REF_FRAME      = TEME
TIME_SYSTEM    = UTC
MEAN_ELEMENT_THEORY = SGP/SGP4

EPOCH          = 2026-02-19T04:27:04.306464
MEAN_MOTION    = 14.21977122
ECCENTRICITY   = .00342693
INCLINATION    = 71.1080
RA_OF_ASC_NODE = 126.8242
ARG_OF_PERICENTER = 158.1174
MEAN_ANOMALY   = 223.3663

EPHEMERIS_TYPE = 0
CLASSIFICATION_TYPE = U
NORAD_CAT_ID   = 15772
ELEMENT_SET_NO = 999
REV_AT_EPOCH   = 11176
BSTAR          = .80734698E-4
MEAN_MOTION_DOT = .132E-5
MEAN_MOTION_DDOT = 0

CCSDS_OMM_VERS = 2.0
CREATION_DATE  = 
ORIGINATOR     = 

OBJECT_NAME    = SL-14 R/B
OBJECT_ID      = 1985-069B
CENTER_NAME    = EARTH
REF_FRAME      = TEME
TIME_SYSTEM    = UTC
MEAN_ELEMENT_THEORY = SGP/SGP4

EPOCH          = 2026-02-19T00:44:36.889728
MEAN_MOTION    = 14.86409664
ECCENTRICITY   = .00172108
INCLINATION    = 82.5250
RA_OF_ASC_NODE = 42.4801
ARG_OF_PERICENTER = 253.0478
MEAN_ANOMALY   = 106.8853

EPHEMERIS_TYPE = 0
CLASSIFICATION_TYPE = U
NORAD_CAT_ID   = 15945
ELEMENT_SET_NO = 999
REV_AT_EPOCH   = 17006
BSTAR          = .52395842E-4
MEAN_MOTION_DOT = .487E-5
MEAN_MOTION_DDOT = 0

CCSDS_OMM_VERS = 2.0
CREATION_DATE  = 
ORIGINATOR     = 

OBJECT_NAME    = SL-16 R/B
OBJECT_ID      = 1985-097B
CENTER_NAME    = EARTH
REF_FRAME      = TEME
TIME_SYSTEM    = UTC
MEAN_ELEMENT_THEORY = SGP/SGP4

EPOCH          = 2026-02-18T18:55:50.756160
MEAN_MOTION    = 14.16594339
ECCENTRICITY   = .00097124
INCLINATION    = 71.0027
RA_OF_ASC_NODE = 180.3424
ARG_OF_PERICENTER = 281.3309
MEAN_ANOMALY   = 184.8908

EPHEMERIS_TYPE = 0
CLASSIFICATION_TYPE = U
NORAD_CAT_ID   = 16182
ELEMENT_SET_NO = 999
REV_AT_EPOCH   = 8455
BSTAR          = .18853013E-4
MEAN_MOTION_DOT = -.1E-6
MEAN_MOTION_DDOT = 0

CCSDS_OMM_VERS = 2.0
CREATION_DATE  = 
ORIGINATOR     = 

OBJECT_NAME    = SL-14 R/B
OBJECT_ID      = 1986-006B
CENTER_NAME    = EARTH
REF_FRAME      = TEME
TIME_SYSTEM    = UTC
MEAN_ELEMENT_THEORY = SGP/SGP4

EPOCH          = 2026-02-19T01:55:32.729088
MEAN_MOTION    = 14.86789341
ECCENTRICITY   = .00760066
INCLINATION    = 82.5248
RA_OF_ASC_NODE = 277.2550
ARG_OF_PERICENTER = 335.5041
MEAN_ANOMALY   = 24.2571

EPHEMERIS_TYPE = 0
CLASSIFICATION_TYPE = U
NORAD_CAT_ID   = 16496
ELEMENT_SET_NO = 999
REV_AT_EPOCH   = 14644
BSTAR          = .5649603E-4
MEAN_MOTION_DOT = .556E-5
MEAN_MOTION_DDOT = 0

CCSDS_OMM_VERS = 2.0
CREATION_DATE  = 
ORIGINATOR     = 

OBJECT_NAME    = COSMOS 1743
OBJECT_ID      = 1986-034A
CENTER_NAME    = EARTH
REF_FRAME      = TEME
TIME_SYSTEM    = UTC
MEAN_ELEMENT_THEORY = SGP/SGP4

EPOCH          = 2026-02-19T03:25:08.688288
MEAN_MOTION    = 15.57155085
ECCENTRICITY   = .00040805
INCLINATION    = 82.5303
RA_OF_ASC_NODE = 93.2760
ARG_OF_PERICENTER = 21.5422
MEAN_ANOMALY   = 338.6004

EPHEMERIS_TYPE = 0
CLASSIFICATION_TYPE = U
NORAD_CAT_ID   = 16719
ELEMENT_SET_NO = 999
REV_AT_EPOCH   = 17736
BSTAR          = .41480095E-3
MEAN_MOTION_DOT = .30207E-3
MEAN_MOTION_DDOT = 0

